start=new Date('2021-09-05T00:00:00.000Z').valueOf();
sats=[{"ELEMENT_SET_NO":"999","TLE_LINE1":"1 47652U 21012AJ  21248.00004630  .00027603  00000-0  18662-2 0  9993","GP_ID":"184105192","MEAN_MOTION_DDOT":"0.0000000000000","FILE":"3108751","OBJECT_ID":"2021-012AJ","MEAN_MOTION":"15.06371360","EPOCH":"2021-09-05T00:00:04.000320","BSTAR":"0.00186620000000","RA_OF_ASC_NODE":"263.8917","TLE_LINE2":"2 47652  53.0528 263.8917 0001319  82.0195 168.0606 15.06371360  3578","MEAN_ELEMENT_THEORY":"SGP4","REV_AT_EPOCH":"357","PERIAPSIS":"546.388","LAUNCH_DATE":"2021-02-16","ECCENTRICITY":"0.00013190","MEAN_MOTION_DOT":"0.00027603","CENTER_NAME":"EARTH","ARG_OF_PERICENTER":"82.0195","REF_FRAME":"TEME","TIME_SYSTEM":"UTC","SITE":"AFETR","INCLINATION":"53.0528","OBJECT_TYPE":"PAYLOAD","PERIOD":"95.594","APOAPSIS":"548.215","DECAY_DATE":null,"RCS_SIZE":"LARGE","CLASSIFICATION_TYPE":"U","COUNTRY_CODE":"US","EPHEMERIS_TYPE":"0","SEMIMAJOR_AXIS":"6925.436","OBJECT_NAME":"STARLINK-2036","MEAN_ANOMALY":"168.0606","NORAD_CAT_ID":"47652"},{"CLASSIFICATION_TYPE":"U","RCS_SIZE":"LARGE","DECAY_DATE":null,"APOAPSIS":"547.736","PERIOD":"95.593","OBJECT_TYPE":"PAYLOAD","INCLINATION":"53.0500","SITE":"AFETR","NORAD_CAT_ID":"47653","MEAN_ANOMALY":"237.3338","OBJECT_NAME":"STARLINK-2037","SEMIMAJOR_AXIS":"6925.392","COUNTRY_CODE":"US","EPHEMERIS_TYPE":"0","MEAN_MOTION":"15.06385697","EPOCH":"2021-09-05T00:00:04.000320","OBJECT_ID":"2021-012AK","FILE":"3108751","GP_ID":"184105444","MEAN_MOTION_DDOT":"0.0000000000000","TLE_LINE1":"1 47653U 21012AK  21248.00004630  .00012946  00000-0  88672-3 0  9997","ELEMENT_SET_NO":"999","TIME_SYSTEM":"UTC","REF_FRAME":"TEME","ARG_OF_PERICENTER":"42.7706","CENTER_NAME":"EARTH","ECCENTRICITY":"0.00006910","MEAN_MOTION_DOT":"0.00012946","PERIAPSIS":"546.779","LAUNCH_DATE":"2021-02-16","MEAN_ELEMENT_THEORY":"SGP4","REV_AT_EPOCH":"357","TLE_LINE2":"2 47653  53.0500 243.8952 0000691  42.7706 237.3338 15.06385697  3579","RA_OF_ASC_NODE":"243.8952","BSTAR":"0.00088672000000"},{"NORAD_CAT_ID":"47654","MEAN_ANOMALY":"148.7786","SEMIMAJOR_AXIS":"6925.371","OBJECT_NAME":"STARLINK-2038","COUNTRY_CODE":"US","EPHEMERIS_TYPE":"0","RCS_SIZE":"LARGE","DECAY_DATE":null,"CLASSIFICATION_TYPE":"U","PERIOD":"95.593","APOAPSIS":"547.866","OBJECT_TYPE":"PAYLOAD","SITE":"AFETR","INCLINATION":"53.0524","TIME_SYSTEM":"UTC","REF_FRAME":"TEME","CENTER_NAME":"EARTH","ARG_OF_PERICENTER":"81.2958","ECCENTRICITY":"0.00009100","MEAN_MOTION_DOT":"0.00025142","PERIAPSIS":"546.606","LAUNCH_DATE":"2021-02-16","TLE_LINE2":"2 47654  53.0524 263.8838 0000910  81.2958 148.7786 15.06392689  3573","RA_OF_ASC_NODE":"263.8838","REV_AT_EPOCH":"357","MEAN_ELEMENT_THEORY":"SGP4","BSTAR":"0.00170110000000","OBJECT_ID":"2021-012AL","MEAN_MOTION":"15.06392689","EPOCH":"2021-09-05T00:00:04.000320","FILE":"3108751","MEAN_MOTION_DDOT":"0.0000000000000","GP_ID":"184106194","TLE_LINE1":"1 47654U 21012AL  21248.00004630  .00025142  00000-0  17011-2 0  9998","ELEMENT_SET_NO":"999"},{"INCLINATION":"53.0527","SITE":"AFETR","OBJECT_TYPE":"PAYLOAD","APOAPSIS":"548.002","PERIOD":"95.593","CLASSIFICATION_TYPE":"U","DECAY_DATE":null,"RCS_SIZE":"LARGE","COUNTRY_CODE":"US","EPHEMERIS_TYPE":"0","OBJECT_NAME":"STARLINK-2039","SEMIMAJOR_AXIS":"6925.378","MEAN_ANOMALY":"185.8397","NORAD_CAT_ID":"47655","ELEMENT_SET_NO":"999","TLE_LINE1":"1 47655U 21012AM  21248.00004630  .00029299  00000-0  19782-2 0  9993","MEAN_MOTION_DDOT":"0.0000000000000","GP_ID":"184104443","FILE":"3108751","MEAN_MOTION":"15.06390302","EPOCH":"2021-09-05T00:00:04.000320","OBJECT_ID":"2021-012AM","BSTAR":"0.00197820000000","MEAN_ELEMENT_THEORY":"SGP4","REV_AT_EPOCH":"357","RA_OF_ASC_NODE":"263.8914","TLE_LINE2":"2 47655  53.0527 263.8914 0001095  84.1340 185.8397 15.06390302  3574","LAUNCH_DATE":"2021-02-16","PERIAPSIS":"546.485","ECCENTRICITY":"0.00010950","MEAN_MOTION_DOT":"0.00029299","ARG_OF_PERICENTER":"84.1340","CENTER_NAME":"EARTH","REF_FRAME":"TEME","TIME_SYSTEM":"UTC"},{"NORAD_CAT_ID":"47656","OBJECT_NAME":"STARLINK-2040","SEMIMAJOR_AXIS":"6925.397","EPHEMERIS_TYPE":"0","COUNTRY_CODE":"US","MEAN_ANOMALY":"122.2776","CLASSIFICATION_TYPE":"U","DECAY_DATE":null,"RCS_SIZE":"LARGE","APOAPSIS":"547.811","PERIOD":"95.593","INCLINATION":"53.0525","SITE":"AFETR","OBJECT_TYPE":"PAYLOAD","REF_FRAME":"TEME","ARG_OF_PERICENTER":"57.8437","CENTER_NAME":"EARTH","TIME_SYSTEM":"UTC","REV_AT_EPOCH":"357","MEAN_ELEMENT_THEORY":"SGP4","RA_OF_ASC_NODE":"243.8840","TLE_LINE2":"2 47656  53.0525 243.8840 0000793  57.8437 122.2776 15.06384264  3573","BSTAR":"0.00053877000000","ECCENTRICITY":"0.00007930","MEAN_MOTION_DOT":"0.00007749","PERIAPSIS":"546.713","LAUNCH_DATE":"2021-02-16","MEAN_MOTION":"15.06384264","EPOCH":"2021-09-05T00:00:04.000320","OBJECT_ID":"2021-012AN","FILE":"3108751","ELEMENT_SET_NO":"999","GP_ID":"184104693","MEAN_MOTION_DDOT":"0.0000000000000","TLE_LINE1":"1 47656U 21012AN  21248.00004630  .00007749  00000-0  53877-3 0  9994"},{"CENTER_NAME":"EARTH","ARG_OF_PERICENTER":"77.6797","REF_FRAME":"TEME","TIME_SYSTEM":"UTC","BSTAR":"0.00186170000000","RA_OF_ASC_NODE":"263.9047","TLE_LINE2":"2 47657  53.0518 263.9047 0001332  77.6797  72.4548 15.06368340  3577","REV_AT_EPOCH":"357","MEAN_ELEMENT_THEORY":"SGP4","LAUNCH_DATE":"2021-02-16","PERIAPSIS":"546.388","MEAN_MOTION_DOT":"0.00027534","ECCENTRICITY":"0.00013320","FILE":"3108751","OBJECT_ID":"2021-012AP","EPOCH":"2021-09-05T00:00:04.000320","MEAN_MOTION":"15.06368340","ELEMENT_SET_NO":"999","TLE_LINE1":"1 47657U 21012AP  21248.00004630  .00027534  00000-0  18617-2 0  9991","GP_ID":"184105944","MEAN_MOTION_DDOT":"0.0000000000000","NORAD_CAT_ID":"47657","COUNTRY_CODE":"US","EPHEMERIS_TYPE":"0","SEMIMAJOR_AXIS":"6925.446","OBJECT_NAME":"STARLINK-2041","MEAN_ANOMALY":"72.4548","PERIOD":"95.594","APOAPSIS":"548.233","DECAY_DATE":null,"RCS_SIZE":"LARGE","CLASSIFICATION_TYPE":"U","SITE":"AFETR","INCLINATION":"53.0518","OBJECT_TYPE":"PAYLOAD"},{"TIME_SYSTEM":"UTC","ARG_OF_PERICENTER":"83.6480","CENTER_NAME":"EARTH","REF_FRAME":"TEME","LAUNCH_DATE":"2021-02-16","PERIAPSIS":"546.423","MEAN_MOTION_DOT":"0.00025894","ECCENTRICITY":"0.00011720","BSTAR":"0.00175120000000","MEAN_ELEMENT_THEORY":"SGP4","REV_AT_EPOCH":"357","RA_OF_ASC_NODE":"263.9033","TLE_LINE2":"2 47658  53.0516 263.9033 0001172  83.6480 106.4184 15.06393238  3577","FILE":"3108751","EPOCH":"2021-09-05T00:00:04.000320","MEAN_MOTION":"15.06393238","OBJECT_ID":"2021-012AQ","TLE_LINE1":"1 47658U 21012AQ  21248.00004630  .00025894  00000-0  17512-2 0  9992","GP_ID":"184105695","MEAN_MOTION_DDOT":"0.0000000000000","ELEMENT_SET_NO":"999","NORAD_CAT_ID":"47658","MEAN_ANOMALY":"106.4184","EPHEMERIS_TYPE":"0","COUNTRY_CODE":"US","OBJECT_NAME":"STARLINK-2042","SEMIMAJOR_AXIS":"6925.369","APOAPSIS":"548.046","PERIOD":"95.593","CLASSIFICATION_TYPE":"U","DECAY_DATE":null,"RCS_SIZE":"LARGE","OBJECT_TYPE":"PAYLOAD","INCLINATION":"53.0516","SITE":"AFETR"},{"NORAD_CAT_ID":"47659","COUNTRY_CODE":"US","EPHEMERIS_TYPE":"0","OBJECT_NAME":"STARLINK-2043","SEMIMAJOR_AXIS":"6727.761","MEAN_ANOMALY":"264.6996","APOAPSIS":"352.409","PERIOD":"91.530","CLASSIFICATION_TYPE":"U","DECAY_DATE":null,"RCS_SIZE":"LARGE","INCLINATION":"53.0425","SITE":"AFETR","OBJECT_TYPE":"PAYLOAD","ARG_OF_PERICENTER":"6.2420","CENTER_NAME":"EARTH","REF_FRAME":"TEME","TIME_SYSTEM":"UTC","BSTAR":"-0.00075628000000","REV_AT_EPOCH":"367","MEAN_ELEMENT_THEORY":"SGP4","TLE_LINE2":"2 47659  53.0425 183.1366 0004137   6.2420 264.6996 15.73247039  3678","RA_OF_ASC_NODE":"183.1366","LAUNCH_DATE":"2021-02-16","PERIAPSIS":"346.843","MEAN_MOTION_DOT":"-0.00105735","ECCENTRICITY":"0.00041370","FILE":"3108751","EPOCH":"2021-09-05T00:00:04.000320","MEAN_MOTION":"15.73247039","OBJECT_ID":"2021-012AR","ELEMENT_SET_NO":"999","TLE_LINE1":"1 47659U 21012AR  21248.00004630 -.00105735  00000-0 -75628-3 0  9991","MEAN_MOTION_DDOT":"0.0000000000000","GP_ID":"184104943"},{"OBJECT_ID":"2021-012AS","EPOCH":"2021-09-05T00:00:04.000320","MEAN_MOTION":"15.73570140","FILE":"3108751","ELEMENT_SET_NO":"999","GP_ID":"184105193","MEAN_MOTION_DDOT":"0.0000000000000","TLE_LINE1":"1 47660U 21012AS  21248.00004630  .00001190  00000-0  12746-4 0  9994","REF_FRAME":"TEME","CENTER_NAME":"EARTH","ARG_OF_PERICENTER":"16.9215","TIME_SYSTEM":"UTC","RA_OF_ASC_NODE":"183.1483","TLE_LINE2":"2 47660  53.0431 183.1483 0004120  16.9215 253.2425 15.73570140  3672","REV_AT_EPOCH":"367","MEAN_ELEMENT_THEORY":"SGP4","BSTAR":"0.00001274600000","ECCENTRICITY":"0.00041200","MEAN_MOTION_DOT":"0.00001190","LAUNCH_DATE":"2021-02-16","PERIAPSIS":"345.934","DECAY_DATE":null,"RCS_SIZE":"MEDIUM","CLASSIFICATION_TYPE":"U","PERIOD":"91.512","APOAPSIS":"351.477","SITE":"AFETR","INCLINATION":"53.0431","OBJECT_TYPE":"PAYLOAD","NORAD_CAT_ID":"47660","SEMIMAJOR_AXIS":"6726.840","OBJECT_NAME":"STARLINK-2044","EPHEMERIS_TYPE":"0","COUNTRY_CODE":"US","MEAN_ANOMALY":"253.2425"},{"CENTER_NAME":"EARTH","ARG_OF_PERICENTER":"48.2291","REF_FRAME":"TEME","TIME_SYSTEM":"UTC","BSTAR":"0.00114230000000","RA_OF_ASC_NODE":"243.8829","TLE_LINE2":"2 47661  53.0524 243.8829 0000933  48.2291 331.8544 15.06388420  3572","MEAN_ELEMENT_THEORY":"SGP4","REV_AT_EPOCH":"357","PERIAPSIS":"546.603","LAUNCH_DATE":"2021-02-16","ECCENTRICITY":"0.00009330","MEAN_MOTION_DOT":"0.00016769","FILE":"3108751","OBJECT_ID":"2021-012AT","EPOCH":"2021-09-05T00:00:04.000320","MEAN_MOTION":"15.06388420","ELEMENT_SET_NO":"999","TLE_LINE1":"1 47661U 21012AT  21248.00004630  .00016769  00000-0  11423-2 0  9992","MEAN_MOTION_DDOT":"0.0000000000000","GP_ID":"184105445","NORAD_CAT_ID":"47661","EPHEMERIS_TYPE":"0","COUNTRY_CODE":"US","SEMIMAJOR_AXIS":"6925.384","OBJECT_NAME":"STARLINK-2051","MEAN_ANOMALY":"331.8544","PERIOD":"95.593","APOAPSIS":"547.895","DECAY_DATE":null,"RCS_SIZE":"LARGE","CLASSIFICATION_TYPE":"U","SITE":"AFETR","INCLINATION":"53.0524","OBJECT_TYPE":"PAYLOAD"}];
